{
  "norad_id": 65885,
  "name": "STARLINK-35415",
  "history": [
    {
      "epoch": "2026-03-28T19:19:18.460128Z",
      "apogee_km": 475.537415270207,
      "perigee_km": 474.8783976240038,
      "latitude_deg": -4.382005842591324e-05,
      "longitude_deg": 166.32669635942204,
      "height_km": 475.92459773309724,
      "semi_major_axis_km": 6853.344906447105,
      "eccentricity": 4.808e-05,
      "inclination_deg": 53.1594,
      "raan_deg": 282.3739,
      "arg_perigee_deg": 56.3744,
      "mean_anomaly_deg": 303.7302,
      "mean_motion_rev_day": 15.30202399
    }
  ]
}